[{"OBJECT_NAME":"STARLINK-6064","OBJECT_ID":"2023-078AQ","EPOCH":"2026-03-09T22:48:04.955904","MEAN_MOTION":14.98321595,"ECCENTRICITY":0.00027596,"INCLINATION":70.0007,"RA_OF_ASC_NODE":323.7545,"ARG_OF_PERICENTER":270.2272,"MEAN_ANOMALY":89.8571,"EPHEMERIS_TYPE":0,"CLASSIFICATION_TYPE":"U","NORAD_CAT_ID":56805,"ELEMENT_SET_NO":999,"REV_AT_EPOCH":15321,"BSTAR":-1.0399114e-5,"MEAN_MOTION_DOT":-2.17e-6,"MEAN_MOTION_DDOT":0},{"OBJECT_NAME":"SATELIOT_3","OBJECT_ID":"2024-149CN","EPOCH":"2026-03-09T19:09:09.165600","MEAN_MOTION":14.97601684,"ECCENTRICITY":0.00058308,"INCLINATION":97.6866,"RA_OF_ASC_NODE":147.0596,"ARG_OF_PERICENTER":63.3535,"MEAN_ANOMALY":296.8284,"EPHEMERIS_TYPE":0,"CLASSIFICATION_TYPE":"U","NORAD_CAT_ID":60552,"ELEMENT_SET_NO":999,"REV_AT_EPOCH":8520,"BSTAR":0.00025002978,"MEAN_MOTION_DOT":2.865e-5,"MEAN_MOTION_DDOT":0}]
